{
  "type": "FeatureCollection",
  "features": [
    {
      "type": "Feature",
      "properties": {
        "norad_id": 44334,
        "name": "EUTELSAT 7C",
        "group": "eutelsat",
        "lat": 0.010091680194493084,
        "lon": -146.68563683829802,
        "alt_km": 35773.48161301604,
        "timestamp": "2025-12-02T08:59:32.391159+00:00",
        "meta_object_name": "EUTELSAT 7C",
        "meta_object_id": "2019-034B",
        "meta_epoch": "2025-12-02T03:32:42.105120",
        "meta_mean_motion": 1.00269329,
        "meta_eccentricity": 0.0003345,
        "meta_inclination": 0.0767,
        "meta_ra_of_asc_node": 181.5669,
        "meta_arg_of_pericenter": 52.1186,
        "meta_mean_anomaly": 257.7397,
        "meta_ephemeris_type": 0,
        "meta_classification_type": "U",
        "meta_norad_cat_id": 44334,
        "meta_element_set_no": 999,
        "meta_rev_at_epoch": 486,
        "meta_bstar": 0,
        "meta_mean_motion_dot": 6.9e-07,
        "meta_mean_motion_ddot": 0,
        "tle_line1": "1 44334U 19034B   25336.14770955  .00000069  00000+0  00000+0 0  9995",
        "tle_line2": "2 44334   0.0767 181.5669 0003345  52.1186 257.7397  1.00269329  4864"
      },
      "geometry": {
        "type": "Point",
        "coordinates": [
          -146.68563683829802,
          0.010091680194493084
        ]
      }
    },
    {
      "type": "Feature",
      "properties": {
        "norad_id": 44624,
        "name": "EUTELSAT 5 WEST B",
        "group": "eutelsat",
        "lat": -0.08222828347846643,
        "lon": -158.68558534462085,
        "alt_km": 35776.11862694271,
        "timestamp": "2025-12-02T08:59:32.391171+00:00",
        "meta_object_name": "EUTELSAT 5 WEST B",
        "meta_object_id": "2019-067A",
        "meta_epoch": "2025-12-02T03:29:12.439104",
        "meta_mean_motion": 1.00272616,
        "meta_eccentricity": 0.0003637,
        "meta_inclination": 0.0731,
        "meta_ra_of_asc_node": 325.5648,
        "meta_arg_of_pericenter": 286.6233,
        "meta_mean_anomaly": 226.3776,
        "meta_ephemeris_type": 0,
        "meta_classification_type": "U",
        "meta_norad_cat_id": 44624,
        "meta_element_set_no": 999,
        "meta_rev_at_epoch": 2246,
        "meta_bstar": 0,
        "meta_mean_motion_dot": -2.1e-07,
        "meta_mean_motion_ddot": 0,
        "tle_line1": "1 44624U 19067A   25336.14528286 -.00000021  00000+0  00000+0 0  9990",
        "tle_line2": "2 44624   0.0731 325.5648 0003637 286.6233 226.3776  1.00272616 22467"
      },
      "geometry": {
        "type": "Point",
        "coordinates": [
          -158.68558534462085,
          -0.08222828347846643
        ]
      }
    },
    {
      "type": "Feature",
      "properties": {
        "norad_id": 45027,
        "name": "EUTELSAT KONNECT",
        "group": "eutelsat",
        "lat": 0.03168935332246523,
        "lon": -146.49986266434797,
        "alt_km": 35785.21840924868,
        "timestamp": "2025-12-02T08:59:32.391183+00:00",
        "meta_object_name": "EUTELSAT KONNECT",
        "meta_object_id": "2020-005B",
        "meta_epoch": "2025-12-02T00:48:38.717280",
        "meta_mean_motion": 1.00267792,
        "meta_eccentricity": 0.000171,
        "meta_inclination": 0.0682,
        "meta_ra_of_asc_node": 99.0592,
        "meta_arg_of_pericenter": 188.9784,
        "meta_mean_anomaly": 162.455,
        "meta_ephemeris_type": 0,
        "meta_classification_type": "U",
        "meta_norad_cat_id": 45027,
        "meta_element_set_no": 999,
        "meta_rev_at_epoch": 2235,
        "meta_bstar": 0,
        "meta_mean_motion_dot": 7e-07,
        "meta_mean_motion_ddot": 0,
        "tle_line1": "1 45027U 20005B   25336.03378145  .00000070  00000+0  00000+0 0  9990",
        "tle_line2": "2 45027   0.0682  99.0592 0001710 188.9784 162.4550  1.00267792 22353"
      },
      "geometry": {
        "type": "Point",
        "coordinates": [
          -146.49986266434797,
          0.03168935332246523
        ]
      }
    },
    {
      "type": "Feature",
      "properties": {
        "norad_id": 49056,
        "name": "EUTELSAT QUANTUM",
        "group": "eutelsat",
        "lat": -0.030077169660255504,
        "lon": -105.96244218069106,
        "alt_km": 35770.90929732389,
        "timestamp": "2025-12-02T08:59:32.391194+00:00",
        "meta_object_name": "EUTELSAT QUANTUM",
        "meta_object_id": "2021-069B",
        "meta_epoch": "2025-12-02T03:44:18.491712",
        "meta_mean_motion": 1.00271228,
        "meta_eccentricity": 0.0003685,
        "meta_inclination": 0.0151,
        "meta_ra_of_asc_node": 1.9478,
        "meta_arg_of_pericenter": 263.2618,
        "meta_mean_anomaly": 269.8413,
        "meta_ephemeris_type": 0,
        "meta_classification_type": "U",
        "meta_norad_cat_id": 49056,
        "meta_element_set_no": 999,
        "meta_rev_at_epoch": 1595,
        "meta_bstar": 0,
        "meta_mean_motion_dot": 1.47e-06,
        "meta_mean_motion_ddot": 0,
        "tle_line1": "1 49056U 21069B   25336.15576958  .00000147  00000+0  00000+0 0  9997",
        "tle_line2": "2 49056   0.0151   1.9478 0003685 263.2618 269.8413  1.00271228 15958"
      },
      "geometry": {
        "type": "Point",
        "coordinates": [
          -105.96244218069106,
          -0.030077169660255504
        ]
      }
    },
    {
      "type": "Feature",
      "properties": {
        "norad_id": 53765,
        "name": "EUTELSAT KONNECT VHTS",
        "group": "eutelsat",
        "lat": 0.02397971158295953,
        "lon": -150.97565942884714,
        "alt_km": 35776.00860694438,
        "timestamp": "2025-12-02T08:59:32.391206+00:00",
        "meta_object_name": "EUTELSAT KONNECT VHTS",
        "meta_object_id": "2022-110A",
        "meta_epoch": "2025-12-02T03:31:27.223104",
        "meta_mean_motion": 1.00268766,
        "meta_eccentricity": 0.0002736,
        "meta_inclination": 0.0568,
        "meta_ra_of_asc_node": 108.832,
        "meta_arg_of_pericenter": 119.7418,
        "meta_mean_anomaly": 258.246,
        "meta_ephemeris_type": 0,
        "meta_classification_type": "U",
        "meta_norad_cat_id": 53765,
        "meta_element_set_no": 999,
        "meta_rev_at_epoch": 485,
        "meta_bstar": 0,
        "meta_mean_motion_dot": 3.8e-07,
        "meta_mean_motion_ddot": 0,
        "tle_line1": "1 53765U 22110A   25336.14684286  .00000038  00000+0  00000+0 0  9999",
        "tle_line2": "2 53765   0.0568 108.8320 0002736 119.7418 258.2460  1.00268766  4858"
      },
      "geometry": {
        "type": "Point",
        "coordinates": [
          -150.97565942884714,
          0.02397971158295953
        ]
      }
    },
    {
      "type": "Feature",
      "properties": {
        "norad_id": 54048,
        "name": "EUTELSAT HOTBIRD 13F",
        "group": "eutelsat",
        "lat": -0.07377359471238254,
        "lon": -140.67786198598563,
        "alt_km": 35792.90610171693,
        "timestamp": "2025-12-02T08:59:32.391217+00:00",
        "meta_object_name": "EUTELSAT HOTBIRD 13F",
        "meta_object_id": "2022-134A",
        "meta_epoch": "2025-12-01T22:26:58.691328",
        "meta_mean_motion": 1.00270089,
        "meta_eccentricity": 0.0002069,
        "meta_inclination": 0.0548,
        "meta_ra_of_asc_node": 289.3102,
        "meta_arg_of_pericenter": 67.0046,
        "meta_mean_anomaly": 64.4812,
        "meta_ephemeris_type": 0,
        "meta_classification_type": "U",
        "meta_norad_cat_id": 54048,
        "meta_element_set_no": 999,
        "meta_rev_at_epoch": 1139,
        "meta_bstar": 0,
        "meta_mean_motion_dot": 1.08e-06,
        "meta_mean_motion_ddot": 0,
        "tle_line1": "1 54048U 22134A   25335.93540152  .00000108  00000+0  00000+0 0  9997",
        "tle_line2": "2 54048   0.0548 289.3102 0002069  67.0046  64.4812  1.00270089 11391"
      },
      "geometry": {
        "type": "Point",
        "coordinates": [
          -140.67786198598563,
          -0.07377359471238254
        ]
      }
    },
    {
      "type": "Feature",
      "properties": {
        "norad_id": 54225,
        "name": "EUTELSAT HOTBIRD 13G",
        "group": "eutelsat",
        "lat": -0.0349523635200771,
        "lon": -140.65038863723973,
        "alt_km": 35778.54053643118,
        "timestamp": "2025-12-02T08:59:32.391230+00:00",
        "meta_object_name": "EUTELSAT HOTBIRD 13G",
        "meta_object_id": "2022-146A",
        "meta_epoch": "2025-12-02T00:40:38.513856",
        "meta_mean_motion": 1.0027224,
        "meta_eccentricity": 0.0002087,
        "meta_inclination": 0.0472,
        "meta_ra_of_asc_node": 239.1671,
        "meta_arg_of_pericenter": 307.1755,
        "meta_mean_anomaly": 267.9561,
        "meta_ephemeris_type": 0,
        "meta_classification_type": "U",
        "meta_norad_cat_id": 54225,
        "meta_element_set_no": 999,
        "meta_rev_at_epoch": 548,
        "meta_bstar": 0,
        "meta_mean_motion_dot": 1.09e-06,
        "meta_mean_motion_ddot": 0,
        "tle_line1": "1 54225U 22146A   25336.02822354  .00000109  00000+0  00000+0 0  9996",
        "tle_line2": "2 54225   0.0472 239.1671 0002087 307.1755 267.9561  1.00272240  5488"
      },
      "geometry": {
        "type": "Point",
        "coordinates": [
          -140.65038863723973,
          -0.0349523635200771
        ]
      }
    }
  ]
}